COSMOS 2251 DEB         
1 37307U 93036BJX 17343.22427916  .00004174  00000-0  41305-3 0  9994
2 37307  74.0240 300.8878 0019519  93.9242 266.4173 14.92072676452742
